*******************************************************************************
Ephemeris / WWW_USER Mon Mar 24 11:34:17 2025 Pasadena, USA      / Horizons    
*******************************************************************************
Target body name: 468861 (2013 LU28)              {source: JPL#36}
Center body name: Earth (399)                     {source: DE441}
Center-site name: Mauna Kea
*******************************************************************************
Start time      : A.D. 2018-Aug-09 05:04:00.0000 UT      
Stop  time      : A.D. 2018-Aug-09 15:50:00.0000 UT      
Step-size       : 1 minutes
*******************************************************************************
Target pole/equ : undefined
Target radii    : undefined                                                    
Center geodetic : 204.5278, 19.8260847, 4.21024   {E-lon(deg),Lat(deg),Alt(km)}
Center cylindric: 204.5278, 6006.35451, 2151.0229 {E-lon(deg),Dxy(km),Dz(km)}
Center pole/equ : ITRF93                          {East-longitude positive}
Center radii    : 6378.137, 6378.137, 6356.752 km {Equator_a, b, pole_c}       
Target primary  : Sun
Vis. interferer : MOON (R_eq= 1737.400) km        {source: DE441}
Rel. light bend : Sun                             {source: DE441}
Rel. lght bnd GM: 1.3271E+11 km^3/s^2                                          
Small-body perts: Yes                             {source: SB441-N16}
Atmos refraction: NO (AIRLESS)
RA format       : HMS
Time format     : CAL 
Calendar mode   : Mixed Julian/Gregorian
RTS-only print  : NO       
EOP file        : eop.250321.p250617                                           
EOP coverage    : DATA-BASED 1962-JAN-20 TO 2025-MAR-21. PREDICTS-> 2025-JUN-16
Units conversion: 1 au= 149597870.700 km, c= 299792.458 km/s, 1 day= 86400.0 s 
Table cut-offs 1: Elevation (-90.0deg=NO ),Airmass (>38.000=NO), Daylight (YES)
Table cut-offs 2: Solar elongation (  0.0,180.0=NO ),Local Hour Angle( 0.0=NO )
Table cut-offs 3: RA/DEC angular rate (     0.0=NO )                           
*******************************************************************************
Initial IAU76/J2000 heliocentric ecliptic osculating elements (au, days, deg.):
  EPOCH=  2459491.5 ! 2021-Oct-04.00 (TDB)         Residual RMS= .14077        
   EC= .9545524767334098   QR= 8.741840911970645   TP= 2460480.7801673855      
   OM= 275.9923561772391   W=  152.9171912923278   IN= 125.3473013584344       
  Equivalent ICRF heliocentric cartesian coordinates (au, au/d):
   X=-6.020062670108302E+00  Y=-1.182282064265113E+00  Z= 8.330249486138040E+00
  VX= 2.086988006100027E-03 VY= 7.079392581348984E-03 VZ=-1.092497303529149E-03
Asteroid physical parameters (km, seconds, rotational period in hours):        
   GM= n.a.                RAD= n.a.               ROTPER= n.a.                
   H= 8.24                 G= .150                 B-V= n.a.                   
                           ALBEDO= n.a.            STYP= n.a.                  
*******************************************************************************
 Date__(UT)__HR:MN     R.A._________(ICRF)_________DEC
******************************************************
$$SOE
 2018-Aug-09 05:04 C   14 59 09.088796 +36 49 09.22415
 2018-Aug-09 05:05 C   14 59 09.085355 +36 49 09.12307
 2018-Aug-09 05:06 C   14 59 09.081914 +36 49 09.02198
 2018-Aug-09 05:07 C   14 59 09.078474 +36 49 08.92089
 2018-Aug-09 05:08 C   14 59 09.075034 +36 49 08.81979
 2018-Aug-09 05:09 C   14 59 09.071594 +36 49 08.71869
 2018-Aug-09 05:10 C   14 59 09.068155 +36 49 08.61757
 2018-Aug-09 05:11 C   14 59 09.064716 +36 49 08.51646
 2018-Aug-09 05:12 C   14 59 09.061277 +36 49 08.41533
 2018-Aug-09 05:13 C   14 59 09.057839 +36 49 08.31420
 2018-Aug-09 05:14 C   14 59 09.054401 +36 49 08.21306
 2018-Aug-09 05:15 C   14 59 09.050964 +36 49 08.11192
 2018-Aug-09 05:16 C   14 59 09.047527 +36 49 08.01077
 2018-Aug-09 05:17 C   14 59 09.044090 +36 49 07.90961
 2018-Aug-09 05:18 N   14 59 09.040654 +36 49 07.80844
 2018-Aug-09 05:19 N   14 59 09.037218 +36 49 07.70727
 2018-Aug-09 05:20 N   14 59 09.033783 +36 49 07.60610
 2018-Aug-09 05:21 N   14 59 09.030348 +36 49 07.50491
 2018-Aug-09 05:22 N   14 59 09.026914 +36 49 07.40372
 2018-Aug-09 05:23 N   14 59 09.023480 +36 49 07.30253
 2018-Aug-09 05:24 N   14 59 09.020046 +36 49 07.20132
 2018-Aug-09 05:25 N   14 59 09.016613 +36 49 07.10011
 2018-Aug-09 05:26 N   14 59 09.013180 +36 49 06.99890
 2018-Aug-09 05:27 N   14 59 09.009748 +36 49 06.89768
 2018-Aug-09 05:28 N   14 59 09.006316 +36 49 06.79645
 2018-Aug-09 05:29 N   14 59 09.002885 +36 49 06.69521
 2018-Aug-09 05:30 N   14 59 08.999454 +36 49 06.59397
 2018-Aug-09 05:31 N   14 59 08.996024 +36 49 06.49272
 2018-Aug-09 05:32 N   14 59 08.992594 +36 49 06.39147
 2018-Aug-09 05:33 N   14 59 08.989165 +36 49 06.29020
 2018-Aug-09 05:34 N   14 59 08.985736 +36 49 06.18894
 2018-Aug-09 05:35 N   14 59 08.982307 +36 49 06.08766
 2018-Aug-09 05:36 N   14 59 08.978879 +36 49 05.98638
 2018-Aug-09 05:37 N   14 59 08.975452 +36 49 05.88510
 2018-Aug-09 05:38 N   14 59 08.972025 +36 49 05.78380
 2018-Aug-09 05:39 N   14 59 08.968598 +36 49 05.68250
 2018-Aug-09 05:40 N   14 59 08.965172 +36 49 05.58120
 2018-Aug-09 05:41 N   14 59 08.961747 +36 49 05.47989
 2018-Aug-09 05:42 N   14 59 08.958322 +36 49 05.37857
 2018-Aug-09 05:43 N   14 59 08.954897 +36 49 05.27724
 2018-Aug-09 05:44 N   14 59 08.951473 +36 49 05.17591
 2018-Aug-09 05:45 N   14 59 08.948050 +36 49 05.07458
 2018-Aug-09 05:46 A   14 59 08.944627 +36 49 04.97323
 2018-Aug-09 05:47 A   14 59 08.941204 +36 49 04.87188
 2018-Aug-09 05:48 A   14 59 08.937782 +36 49 04.77053
 2018-Aug-09 05:49 A   14 59 08.934361 +36 49 04.66917
 2018-Aug-09 05:50 A   14 59 08.930940 +36 49 04.56780
 2018-Aug-09 05:51 A   14 59 08.927520 +36 49 04.46642
 2018-Aug-09 05:52 A   14 59 08.924100 +36 49 04.36504
 2018-Aug-09 05:53 A   14 59 08.920681 +36 49 04.26366
 2018-Aug-09 05:54 A   14 59 08.917262 +36 49 04.16226
 2018-Aug-09 05:55 A   14 59 08.913844 +36 49 04.06086
 2018-Aug-09 05:56 A   14 59 08.910427 +36 49 03.95946
 2018-Aug-09 05:57 A   14 59 08.907010 +36 49 03.85805
 2018-Aug-09 05:58 A   14 59 08.903593 +36 49 03.75663
 2018-Aug-09 05:59 A   14 59 08.900178 +36 49 03.65521
 2018-Aug-09 06:00 A   14 59 08.896762 +36 49 03.55378
 2018-Aug-09 06:01 A   14 59 08.893348 +36 49 03.45234
 2018-Aug-09 06:02 A   14 59 08.889933 +36 49 03.35090
 2018-Aug-09 06:03 A   14 59 08.886520 +36 49 03.24945
 2018-Aug-09 06:04 A   14 59 08.883107 +36 49 03.14800
 2018-Aug-09 06:05 A   14 59 08.879695 +36 49 03.04654
 2018-Aug-09 06:06 A   14 59 08.876283 +36 49 02.94507
 2018-Aug-09 06:07 A   14 59 08.872872 +36 49 02.84360
 2018-Aug-09 06:08 A   14 59 08.869461 +36 49 02.74212
 2018-Aug-09 06:09 A   14 59 08.866051 +36 49 02.64064
 2018-Aug-09 06:10 A   14 59 08.862642 +36 49 02.53915
 2018-Aug-09 06:11 A   14 59 08.859233 +36 49 02.43765
 2018-Aug-09 06:12 A   14 59 08.855825 +36 49 02.33615
 2018-Aug-09 06:13     14 59 08.852417 +36 49 02.23464
 2018-Aug-09 06:14     14 59 08.849011 +36 49 02.13313
 2018-Aug-09 06:15     14 59 08.845604 +36 49 02.03161
 2018-Aug-09 06:16     14 59 08.842199 +36 49 01.93008
 2018-Aug-09 06:17     14 59 08.838794 +36 49 01.82855
 2018-Aug-09 06:18     14 59 08.835389 +36 49 01.72702
 2018-Aug-09 06:19     14 59 08.831985 +36 49 01.62547
 2018-Aug-09 06:20     14 59 08.828582 +36 49 01.52392
 2018-Aug-09 06:21     14 59 08.825180 +36 49 01.42237
 2018-Aug-09 06:22     14 59 08.821778 +36 49 01.32081
 2018-Aug-09 06:23     14 59 08.818377 +36 49 01.21924
 2018-Aug-09 06:24     14 59 08.814976 +36 49 01.11767
 2018-Aug-09 06:25     14 59 08.811576 +36 49 01.01609
 2018-Aug-09 06:26     14 59 08.808177 +36 49 00.91451
 2018-Aug-09 06:27     14 59 08.804779 +36 49 00.81292
 2018-Aug-09 06:28     14 59 08.801381 +36 49 00.71133
 2018-Aug-09 06:29     14 59 08.797984 +36 49 00.60973
 2018-Aug-09 06:30     14 59 08.794587 +36 49 00.50812
 2018-Aug-09 06:31     14 59 08.791191 +36 49 00.40651
 2018-Aug-09 06:32     14 59 08.787796 +36 49 00.30489
 2018-Aug-09 06:33     14 59 08.784402 +36 49 00.20327
 2018-Aug-09 06:34     14 59 08.781008 +36 49 00.10164
 2018-Aug-09 06:35     14 59 08.777615 +36 49 00.00001
 2018-Aug-09 06:36     14 59 08.774222 +36 48 59.89837
 2018-Aug-09 06:37     14 59 08.770830 +36 48 59.79672
 2018-Aug-09 06:38     14 59 08.767439 +36 48 59.69507
 2018-Aug-09 06:39     14 59 08.764049 +36 48 59.59342
 2018-Aug-09 06:40     14 59 08.760659 +36 48 59.49175
 2018-Aug-09 06:41     14 59 08.757271 +36 48 59.39009
 2018-Aug-09 06:42     14 59 08.753882 +36 48 59.28842
 2018-Aug-09 06:43     14 59 08.750495 +36 48 59.18674
 2018-Aug-09 06:44     14 59 08.747108 +36 48 59.08505
 2018-Aug-09 06:45     14 59 08.743722 +36 48 58.98337
 2018-Aug-09 06:46     14 59 08.740337 +36 48 58.88167
 2018-Aug-09 06:47     14 59 08.736952 +36 48 58.77997
 2018-Aug-09 06:48     14 59 08.733568 +36 48 58.67827
 2018-Aug-09 06:49     14 59 08.730185 +36 48 58.57656
 2018-Aug-09 06:50     14 59 08.726803 +36 48 58.47484
 2018-Aug-09 06:51     14 59 08.723421 +36 48 58.37312
 2018-Aug-09 06:52     14 59 08.720040 +36 48 58.27139
 2018-Aug-09 06:53     14 59 08.716660 +36 48 58.16966
 2018-Aug-09 06:54     14 59 08.713281 +36 48 58.06793
 2018-Aug-09 06:55     14 59 08.709902 +36 48 57.96618
 2018-Aug-09 06:56     14 59 08.706524 +36 48 57.86444
 2018-Aug-09 06:57     14 59 08.703147 +36 48 57.76268
 2018-Aug-09 06:58     14 59 08.699770 +36 48 57.66093
 2018-Aug-09 06:59     14 59 08.696395 +36 48 57.55916
 2018-Aug-09 07:00     14 59 08.693020 +36 48 57.45740
 2018-Aug-09 07:01     14 59 08.689646 +36 48 57.35562
 2018-Aug-09 07:02     14 59 08.686272 +36 48 57.25385
 2018-Aug-09 07:03     14 59 08.682900 +36 48 57.15206
 2018-Aug-09 07:04     14 59 08.679528 +36 48 57.05028
 2018-Aug-09 07:05     14 59 08.676157 +36 48 56.94848
 2018-Aug-09 07:06     14 59 08.672787 +36 48 56.84668
